OBJECT_NAME,OBJECT_ID,EPOCH,MEAN_MOTION,ECCENTRICITY,INCLINATION,RA_OF_ASC_NODE,ARG_OF_PERICENTER,MEAN_ANOMALY,EPHEMERIS_TYPE,CLASSIFICATION_TYPE,NORAD_CAT_ID,ELEMENT_SET_NO,REV_AT_EPOCH,BSTAR,MEAN_MOTION_DOT,MEAN_MOTION_DDOT
LEMUR-2-CELIJO-SB-PK,2025-276DW,2026-06-02T10:13:51.581280,14.99780582,.00085917,97.5292,224.6866,169.2335,190.9074,0,U,66781,999,2041,.62950949E-3,.7736E-4,0
LEMUR-2-FINNIAN,2025-276DX,2026-06-03T17:47:18.486816,15.00198931,.00082268,97.5250,226.1641,130.0272,230.1676,0,U,66782,999,1798,.61878755E-3,.7687E-4,0
LEMUR-2-STARLIGHT,2025-276DY,2026-06-03T03:38:18.460320,14.98878981,.00150619,97.5271,225.2684,169.1551,191.0000,0,U,66783,999,2809,.58889723E-3,.7075E-4,0
LEMUR-2-TARTIFLETTE,2025-276DZ,2026-06-03T03:36:26.781408,14.98889613,.00137169,97.5269,225.2721,175.6006,184.5341,0,U,66784,999,2809,.71204921E-3,.8568E-4,0
LEMUR-2-VUKASIN,2025-276EA,2026-06-03T03:44:46.589856,15.00195286,.00061078,97.5301,225.5417,158.1288,202.0198,0,U,66785,999,2804,.59853894E-3,.743E-4,0
LEMUR-2-HOTSPUR-TOM,2025-276EB,2026-06-04T00:13:55.594272,14.98784076,.0014977,97.5238,226.0893,169.0978,191.0572,0,U,66786,999,2815,.64493E-3,.7736E-4,0
LEMUR-2-MYRA,2025-276EC,2026-06-03T17:16:39.352224,15.00057164,.00148671,97.5223,226.0441,186.4673,173.6362,0,U,66787,999,2819,.56494926E-3,.6997E-4,0
LEMUR-2 FIKRETDENGIZ,2026-004A,2026-06-03T13:16:36.378048,14.88221873,.00088388,97.8015,153.3224,173.3369,186.7966,0,U,67363,999,2125,.51674204E-3,.4718E-4,0
TWILIGHT-1 OBJECT B,2026-004B,2026-06-03T23:25:05.549088,14.87654413,.0008983,97.8058,153.7586,163.3184,196.8330,0,U,67364,999,2132,.19779E-3,.1747E-4,0
LEMUR-2-MARIO-SOUSA,2026-004C,2026-06-04T05:03:30.777696,14.88405946,.0008477,97.7991,153.9664,171.6156,188.5204,0,U,67365,999,2136,.6121E-3,.5625E-4,0
LEMUR-2-SONNENBLUME,2026-004E,2026-06-04T00:08:29.620032,14.88244849,.0007988,97.7983,153.7541,174.6572,185.4731,0,U,67367,999,2133,.37968E-3,.3453E-4,0
LEMUR-2-WOBLER,2026-004F,2026-06-04T00:01:31.838016,14.88419567,.000853,97.8037,153.8581,163.6845,196.4648,0,U,67368,999,2133,.50648E-3,.4646E-4,0
LEMUR-2-GRAM-E-SUE,2026-004H,2026-06-03T23:47:40.810848,14.88409002,.0007025,97.7971,153.7538,174.8290,185.3001,0,U,67370,999,2133,.30273E-3,.2753E-4,0
LEMUR-2-KATIE,2026-004AA,2026-06-03T23:49:16.612032,14.89945610,.000444,97.8032,154.1718,120.4962,239.6694,0,U,67387,999,2134,.47301E-3,.4501E-4,0
LEMUR-2-HCS-BAZUS,2026-004AB,2026-06-03T23:47:58.174656,14.89938139,.0004108,97.8020,154.1536,115.6889,244.4753,0,U,67388,999,2134,.54476E-3,.5192E-4,0
